GPS BIIR-5  (PRN 22)    
1 26407U 00040A   26177.27244779  .00000080  00000+0  00000+0 0  9994
2 26407  54.8504 214.8013 0120911 302.5469  61.1141  2.00557847190135
GPS BIIR-8  (PRN 16)    
1 27663U 03005A   26177.15567986  .00000080  00000+0  00000+0 0  9998
2 27663  54.8811 214.6123 0148006  53.0952   2.3339  2.00560186171495
GPS BIIR-11 (PRN 19)    
1 28190U 04009A   26177.37504252 -.00000053  00000+0  00000+0 0  9991
2 28190  54.8219 275.3158 0116472 173.4943 193.2611  2.00554561163139
GPS BIIR-13 (PRN 02)    
1 28474U 04045A   26177.69139836 -.00000105  00000+0  00000+0 0  9991
2 28474  55.1302 324.5134 0169919 316.6359 343.5014  2.00556468158610
GPS BIIRM-1 (PRN 17)    
1 28874U 05038A   26177.82146705 -.00000043  00000+0  00000+0 0  9997
2 28874  54.8700 272.7885 0127991 296.2425  61.8586  2.00565150152021
GPS BIIRM-2 (PRN 31)    
1 29486U 06042A   26177.46628734  .00000043  00000+0  00000+0 0  9999
2 29486  54.7118 150.9706 0106773  54.6587 305.6063  2.00569377144577
GPS BIIRM-3 (PRN 12)    
1 29601U 06052A   26177.39306010  .00000082  00000+0  00000+0 0  9994
2 29601  54.9344 213.6411 0084629  90.8415 270.2080  2.00558596143594
GPS BIIRM-4 (PRN 15)    
1 32260U 07047A   26177.19961717 -.00000076  00000+0  00000+0 0  9997
2 32260  54.1016  79.6941 0167103  87.5760 274.3492  2.00554914136998
GPS BIIRM-5 (PRN 29)    
1 32384U 07062A   26177.47739374 -.00000048  00000+0  00000+0 0  9993
2 32384  55.0241 273.7790 0035844 166.2387 161.8348  2.00560747135697
GPS BIIRM-6 (PRN 07)    
1 32711U 08012A   26177.11012545  .00000044  00000+0  00000+0 0  9993
2 32711  54.4985 149.5683 0211415 247.9482 109.7699  2.00572724133936
GPS BIIRM-8 (PRN 05)    
1 35752U 09043A   26177.34349432 -.00000085  00000+0  00000+0 0  9995
2 35752  56.2161  27.0922 0053802  83.5927  94.0235  2.00553956123542
GPS BIIF-1  (PRN 25)    
1 36585U 10022A   26177.37049338  .00000086  00000+0  00000+0 0  9994
2 36585  54.2697 208.1920 0126418  66.1257 250.0099  2.00562964117775
GPS BIIF-3  (PRN 24)    
1 38833U 12053A   26177.29038387  .00000028  00000+0  00000+0 0  9997
2 38833  53.5875 143.2264 0180813  65.8944 295.9517  2.00567692 99620
GPS BIIF-4  (PRN 27)    
1 39166U 13023A   26176.65900812 -.00000046  00000+0  00000+0 0  9996
2 39166  54.4973 268.6283 0141475  51.0602 310.2306  2.00563550 96051
GPS BIIF-5  (PRN 30)    
1 39533U 14008A   26177.15932725  .00000041  00000+0  00000+0 0  9996
2 39533  53.6559 148.9537 0084215 231.3935 127.8246  2.00560425 89866
GPS BIIF-6  (PRN 06)    
1 39741U 14026A   26176.93636039 -.00000104  00000+0  00000+0 0  9992
2 39741  56.4938 331.1769 0038119 326.3471  33.4038  2.00560487 88716
GPS BIIF-7  (PRN 09)    
1 40105U 14045A   26177.02815772 -.00000068  00000+0  00000+0 0  9992
2 40105  55.3587  88.1127 0033686 118.2750 242.0678  2.00559107 86251
GPS BIIF-8  (PRN 03)    
1 40294U 14068A   26176.89738811 -.00000085  00000+0  00000+0 0  9997
2 40294  56.9936  30.6191 0067228  70.9208 289.8621  2.00576883 85389
GPS BIIF-9  (PRN 26)    
1 40534U 15013A   26177.03735334  .00000087  00000+0  00000+0 0  9990
2 40534  53.1674 203.8114 0109747  40.1916 320.6840  2.00550980 82004
GPS BIIF-10 (PRN 08)    
1 40730U 15033A   26177.69437856 -.00000031  00000+0  00000+0 0  9990
2 40730  53.9750 266.6943 0115145  30.2371 330.4696  2.00555882 80187
GPS BIIF-11 (PRN 10)    
1 41019U 15062A   26177.25150271 -.00000083  00000+0  00000+0 0  9995
2 41019  56.9655  30.4619 0112170 231.0060 128.0428  2.00567152 78019
GPS BIIF-12 (PRN 32)    
1 41328U 16007A   26177.34308400 -.00000066  00000+0  00000+0 0  9998
2 41328  55.5293  89.0967 0095637 247.1706 111.8201  2.00551441 76026
GPS BIII-1  (PRN 04)    
1 43873U 18109A   26177.15649352 -.00000064  00000+0  00000+0 0  9991
2 43873  55.6873  91.8327 0038420 197.7328 282.2646  2.00562253 55257
GPS BIII-2  (PRN 18)    
1 44506U 19056A   26176.86217744 -.00000105  00000+0  00000+0 0  9996
2 44506  55.6325 330.7975 0062408 197.6705 333.6981  2.00570107 50242
GPS BIII-3  (PRN 23)    
1 45854U 20041A   26177.71006220 -.00000081  00000+0  00000+0 0  9992
2 45854  56.6762  28.5735 0064531 204.5005 157.1000  2.00558725 44236
GPS BIII-4  (PRN 14)    
1 46826U 20078A   26177.24606883  .00000083  00000+0  00000+0 0  9992
2 46826  53.9789 210.4109 0073823 207.4122 155.8219  2.00565126 41695
GPS BIII-5  (PRN 11)    
1 48859U 21054A   26177.73280480 -.00000105  00000+0  00000+0 0  9996
2 48859  55.1697 332.0757 0025694 228.3266 312.6633  2.00568715 36941
GPS BIII-6  (PRN 28)    
1 55268U 23009A   26176.93387399  .00000044  00000+0  00000+0 0  9999
2 55268  55.1240 148.1751 0006264 317.1527  45.3707  2.00571086 25424
GPS BIII-7  (PRN 01)    
1 62339U 24242A   26177.06783932 -.00000106  00000+0  00000+0 0  9994
2 62339  54.8454 333.8210 0017666   4.5395 177.0108  2.00572026 11434
GPS BIII-8  (PRN 21)    
1 64202U 25116A   26177.81015022 -.00000084  00000+0  00000+0 0  9992
2 64202  55.2410  30.7429 0008211 341.8518 198.6720  2.00575489  8067
GPS BIII-9  (PRN 20)    
1 67588U 26017A   26177.17140900 -.00000068  00000+0  00000+0 0  9998
2 67588  55.0939  88.3946 0021485 258.6377 101.1236  2.00570994431797
GPS BIII-10 (PRN 13)    
1 68791U 26087A   26173.65141046  .00000058  00000+0  00000+0 0  9991
2 68791  54.9627 207.5713 0020681 106.6591  76.9843  2.00570839   940
